[{"OBJECT_NAME":"STARLINK-30579","OBJECT_ID":"2023-158L","EPOCH":"2026-03-09T03:39:21.045888","MEAN_MOTION":15.26742207,"ECCENTRICITY":0.00019774,"INCLINATION":43.0056,"RA_OF_ASC_NODE":4.274,"ARG_OF_PERICENTER":261.2408,"MEAN_ANOMALY":98.822,"EPHEMERIS_TYPE":0,"CLASSIFICATION_TYPE":"U","NORAD_CAT_ID":58061,"ELEMENT_SET_NO":999,"REV_AT_EPOCH":13378,"BSTAR":0.00026756749,"MEAN_MOTION_DOT":6.924e-5,"MEAN_MOTION_DDOT":0},{"OBJECT_NAME":"QUICK3","OBJECT_ID":"2025-135AG","EPOCH":"2026-03-09T21:40:49.946304","MEAN_MOTION":15.24606762,"ECCENTRICITY":0.00063908,"INCLINATION":97.4614,"RA_OF_ASC_NODE":185.4931,"ARG_OF_PERICENTER":144.4818,"MEAN_ANOMALY":215.6846,"EPHEMERIS_TYPE":0,"CLASSIFICATION_TYPE":"U","NORAD_CAT_ID":64558,"ELEMENT_SET_NO":999,"REV_AT_EPOCH":3971,"BSTAR":0.00070513701,"MEAN_MOTION_DOT":0.00017352,"MEAN_MOTION_DDOT":0}]
